IRIDIUM 105 [+]         
1 41921U 17003E   17346.42098052  .00000256  00000-0  27234-4 0  9994
2 41921  85.8793 283.0113 0011298 145.2379 214.9584 14.84196603 49197
